     2.100          NAVIGATION                              RINEX VERSION / TYPE
fic2rin                                 01/23/2009 02:11:35 PGM / RUN BY / DATE
                                                            END OF HEADER
24 09  1 22 12  0  0.0  .159533694386D-03  .295585778076D-11  .000000000000D+00
     .410000000000D+02  .365625000000D+01  .480270005173D-08 -.199105707476D+01
     .145286321640D-06  .702059385367D-02  .766105949879D-05  .515366622734D+04
     .388800000000D+06 -.199303030968D-06  .190959013812D+01  .335276126862D-07
     .950954728430D+00  .227125000000D+03 -.641133186045D+00 -.805640701026D-08
    -.501449458811D-09  .100000000000D+01  .151500000000D+04  .000000000000D+00
     .240000000000D+01  .000000000000D+00 -.139698386192D-08  .410000000000D+02
     .381606000000D+06  .400000000000D+01
25 09  1 22 12  0  0.0  .191321596503D-03  .259205990005D-10  .000000000000D+00
     .250000000000D+02 -.972187500000D+02  .445661420730D-08 -.146305111411D+01
    -.480934977531D-05  .117906823289D-01  .360049307346D-05  .515367779541D+04
     .388800000000D+06 -.236555933952D-06 -.137748122183D+01  .195577740669D-06
     .967838521994D+00  .315875000000D+03 -.123600200330D+01 -.824784355579D-08
    -.932181686252D-10  .100000000000D+01  .151500000000D+04  .000000000000D+00
     .240000000000D+01  .000000000000D+00 -.745058059692D-08  .250000000000D+02
     .381606000000D+06  .400000000000D+01
26 09  1 22 12  0  0.0  .383770093322D-04  .329691829393D-11  .000000000000D+00
     .430000000000D+02  .630937500000D+02  .396945105786D-08  .145878979759D+01
     .307150185108D-05  .194875468733D-01  .280328094959D-05  .515364130211D+04
     .388800000000D+06 -.383704900742D-06 -.227856857370D+01  .409781932831D-07
     .993172686292D+00  .345343750000D+03  .966633273527D+00 -.814926802115D-08
     .111790370803D-09  .100000000000D+01  .151500000000D+04  .000000000000D+00
     .240000000000D+01  .000000000000D+00 -.605359673500D-08  .430000000000D+02
     .381606000000D+06  .400000000000D+01
27 09  1 22 12  0  0.0  .183386728168D-04  .306954461848D-11  .000000000000D+00
     .800000000000D+01 -.988750000000D+02  .411231415153D-08 -.223182242064D+01
    -.490620732307D-05  .210803718073D-01  .245124101639D-05  .515519875717D+04
     .388800000000D+06  .298023223877D-06 -.134167201256D+01  .115483999252D-06
     .972501394895D+00  .328937500000D+03 -.165968240567D+01 -.771925010918D-08
     .289297764699D-10  .100000000000D+01  .151500000000D+04  .000000000000D+00
     .240000000000D+01  .000000000000D+00 -.465661287308D-08  .800000000000D+01
     .381606000000D+06  .400000000000D+01
28 09  1 22 12  0  0.0 -.237044878304D-04  .113686837722D-12  .000000000000D+00
     .310000000000D+02 -.761875000000D+02  .413624371972D-08 -.267539511637D+01
    -.398047268391D-05  .145749527728D-01  .968016684055D-05  .515364404106D+04
     .388800000000D+06  .264495611191D-06 -.206318838945D+00 -.894069671631D-07
     .965985686507D+00  .192218750000D+03 -.206408964061D+01 -.747245411485D-08
     .385730352932D-09  .100000000000D+01  .151500000000D+04  .000000000000D+00
     .240000000000D+01  .000000000000D+00 -.102445483208D-07  .310000000000D+02
     .381606000000D+06  .400000000000D+01
29 09  1 22 12  0  0.0 -.162860378623D-04  .284217094304D-11  .000000000000D+00
     .720000000000D+02  .968750000000D+01  .484234456023D-08 -.553577291768D+00
     .620260834694D-06  .322583841626D-02  .640191137791D-05  .515374643135D+04
     .388800000000D+06 -.111758708954D-07  .834968861633D+00 -.577419996262D-07
     .959776477011D+00  .254125000000D+03 -.134265572988D+01 -.811390940547D-08
     .234295473633D-09  .100000000000D+01  .151500000000D+04  .000000000000D+00
     .340000000000D+01  .000000000000D+00 -.884756445885D-08  .720000000000D+02
     .381606000000D+06  .400000000000D+01
30 09  1 22 12  0  0.0  .121403485537D-03  .238742359215D-11  .000000000000D+00
     .390000000000D+02 -.631250000000D+02  .453661753976D-08 -.225163836578D+01
    -.326335430145D-05  .111503273947D-01  .971741974354D-05  .515365312386D+04
     .388800000000D+06  .163912773132D-06 -.277130278217D+00 -.130385160446D-07
     .951215145403D+00  .185875000000D+03  .141489565599D+01 -.769353475232D-08
     .314655963827D-09  .100000000000D+01  .151500000000D+04  .000000000000D+00
     .340000000000D+01  .000000000000D+00 -.791624188423D-08  .390000000000D+02
     .381606000000D+06  .400000000000D+01
31 09  1 22 12  0  0.0 -.486839562654D-04 -.147792889038D-11  .000000000000D+00
     .770000000000D+02 -.994375000000D+02  .435160983345D-08  .245223353188D+00
    -.528059899807D-05  .715080962982D-02  .429153442383D-05  .515362863350D+04
     .388800000000D+06 -.689178705215D-07 -.128541306645D+01 -.558793544769D-07
     .970934831996D+00  .299843750000D+03 -.120575296091D+01 -.821105630917D-08
    -.113933317209D-09  .100000000000D+01  .151500000000D+04  .000000000000D+00
     .340000000000D+01  .000000000000D+00 -.130385160446D-07  .770000000000D+02
     .381606000000D+06  .400000000000D+01
32 09  1 22 12  0  0.0  .301674474031D-03 -.284217094304D-11  .000000000000D+00
     .250000000000D+02  .998750000000D+02  .421838999859D-08  .109628351494D+01
     .490061938763D-05  .136318110162D-01  .838376581669D-05  .515365713501D+04
     .388800000000D+06  .540167093277D-07  .299106710369D+01 -.339001417160D-06
     .966082473167D+00  .220468750000D+03 -.120796389241D+01 -.792461580634D-08
    -.696457581682D-10  .100000000000D+01  .151500000000D+04  .000000000000D+00
     .340000000000D+01  .000000000000D+00 -.325962901115D-08  .250000000000D+02
     .381606000000D+06  .400000000000D+01
28 09  1 22 11 59 44.0 -.236993655562D-04  .113686837722D-12  .000000000000D+00
     .170000000000D+02 -.761875000000D+02  .413624371972D-08 -.267772896957D+01
    -.398047268391D-05  .145749510266D-01  .968016684055D-05  .515364402771D+04
     .388784000000D+06  .264495611191D-06 -.206318714597D+00 -.894069671631D-07
     .965985682118D+00  .192218750000D+03 -.206408950310D+01 -.747245411485D-08
     .385730352932D-09  .100000000000D+01  .151500000000D+04  .000000000000D+00
     .240000000000D+01  .000000000000D+00 -.102445483208D-07  .170000000000D+02
     .381966000000D+06  .400000000000D+01
20 09  1 22 11 59 44.0  .929725356400D-04 -.113686837722D-11  .000000000000D+00
     .000000000000D+00  .101875000000D+03  .460376319379D-08 -.173725695179D+01
     .524520874023D-05  .387887621764D-02  .887177884579D-05  .515369771004D+04
     .388784000000D+06  .931322574615D-07  .288423310903D+01  .447034835815D-07
     .944044115547D+00  .199281250000D+03  .130838872593D+01 -.796997483859D-08
    -.181793286706D-09  .100000000000D+01  .151500000000D+04  .000000000000D+00
     .240000000000D+01  .000000000000D+00 -.651925802231D-08  .000000000000D+00
     .384066000000D+06  .400000000000D+01
10 09  1 22 11 59 44.0 -.990182161331D-05 -.568434188608D-12  .000000000000D+00
     .000000000000D+00  .899375000000D+02  .420624663563D-08  .300832472110D+01
     .464171171188D-05  .848436786328D-02  .930577516556D-05  .515377910233D+04
     .388784000000D+06 -.167638063431D-07  .293062384761D+01 -.856816768646D-07
     .960421196712D+00  .201625000000D+03  .582040942124D+00 -.769460622552D-08
    -.100718481043D-09  .100000000000D+01  .151500000000D+04  .000000000000D+00
     .240000000000D+01  .000000000000D+00 -.279396772385D-08  .000000000000D+00
     .385206000000D+06  .400000000000D+01
23 09  1 22 11 59 44.0  .385588966310D-03  .795807864051D-12  .000000000000D+00
     .000000000000D+00  .621875000000D+02  .439161149968D-08  .189591706792D+01
     .326707959175D-05  .576743460260D-02  .185519456863D-05  .515365240288D+04
     .388784000000D+06 -.111758708954D-07 -.232555268502D+01  .707805156708D-07
     .970959903486D+00  .349156250000D+03  .288130124565D+01 -.819534136886D-08
     .101432796512D-09  .100000000000D+01  .151500000000D+04  .000000000000D+00
     .240000000000D+01  .000000000000D+00 -.200234353542D-07  .000000000000D+00
     .387456000000D+06  .400000000000D+01
21 09  1 22 11 59 44.0  .326954759657D-04 -.181898940355D-11  .000000000000D+00
     .220000000000D+02  .278125000000D+01  .521914596981D-08 -.616781807187D+00
     .124797224998D-06  .145672326908D-01  .697746872902D-05  .515364563751D+04
     .388784000000D+06  .258907675743D-06  .187957227043D+01  .219792127609D-06
     .934299041831D+00  .229406250000D+03 -.265190320481D+01 -.838963517627D-08
    -.516092925913D-09  .100000000000D+01  .151500000000D+04  .000000000000D+00
     .240000000000D+01  .000000000000D+00 -.116415321827D-07  .220000000000D+02
     .387576000000D+06  .400000000000D+01
22 09  1 22 11 59 44.0  .206309370697D-03 -.454747350886D-12  .000000000000D+00
     .200000000000D+01  .964062500000D+02  .456447584303D-08 -.302661223869D+01
     .493973493576D-05  .492517370731D-02  .817701220512D-05  .515366999435D+04
     .388784000000D+06 -.372529029846D-08  .294392115560D+01 -.372529029846D-08
     .942138948555D+00  .212750000000D+03 -.181442366123D+01 -.784604110482D-08
    -.108933108930D-09  .100000000000D+01  .151500000000D+04  .000000000000D+00
     .240000000000D+01  .000000000000D+00 -.181607902050D-07  .200000000000D+01
     .388206000000D+06  .400000000000D+01
10 09  1 22 13 59 44.0 -.990601256490D-05 -.568434188608D-12  .000000000000D+00
     .100000000000D+01  .966250000000D+02  .415374444870D-08 -.222471337608D+01
     .484474003315D-05  .848349451553D-02  .932253897190D-05  .515378079605D+04
     .395984000000D+06  .316649675369D-07  .293056823039D+01 -.838190317154D-07
     .960420504752D+00  .200125000000D+03  .582007255510D+00 -.771353558543D-08
    -.725030200418D-10  .100000000000D+01  .151500000000D+04  .000000000000D+00
     .240000000000D+01  .000000000000D+00 -.279396772385D-08  .100000000000D+01
     .388806000000D+06  .400000000000D+01
